{"fetched_at":"2026-07-12T17:33:11.475Z","source":"https://celestrak.org/NORAD/elements/gp.php?NAME=UMBRA&FORMAT=JSON","constellation":"umbra","records":[{"OBJECT_NAME":"UMBRA-07","OBJECT_ID":"2023-174AT","EPOCH":"2026-07-11T16:49:43.013856","CLASSIFICATION_TYPE":"U","MEAN_MOTION":15.09580721,"ECCENTRICITY":0.00026633,"INCLINATION":97.3787,"RA_OF_ASC_NODE":247.5395,"ARG_OF_PERICENTER":24.9199,"MEAN_ANOMALY":335.2158,"EPHEMERIS_TYPE":0,"NORAD_CAT_ID":58297,"ELEMENT_SET_NO":999,"REV_AT_EPOCH":14711,"BSTAR":0.00038913488,"MEAN_MOTION_DOT":0.00006191,"MEAN_MOTION_DDOT":0},{"OBJECT_NAME":"UMBRA-09","OBJECT_ID":"2024-149CB","EPOCH":"2026-07-12T01:02:38.426784","CLASSIFICATION_TYPE":"U","MEAN_MOTION":15.18786696,"ECCENTRICITY":0.00017816,"INCLINATION":97.6983,"RA_OF_ASC_NODE":280.6851,"ARG_OF_PERICENTER":207.5447,"MEAN_ANOMALY":152.5692,"EPHEMERIS_TYPE":0,"NORAD_CAT_ID":60541,"ELEMENT_SET_NO":999,"REV_AT_EPOCH":10449,"BSTAR":0.00039796329,"MEAN_MOTION_DOT":0.00008209,"MEAN_MOTION_DDOT":0},{"OBJECT_NAME":"UMBRA-10","OBJECT_ID":"2024-149CH","EPOCH":"2026-07-11T18:42:29.978496","CLASSIFICATION_TYPE":"U","MEAN_MOTION":15.18785708,"ECCENTRICITY":0.00014713,"INCLINATION":97.6983,"RA_OF_ASC_NODE":280.4472,"ARG_OF_PERICENTER":169.7068,"MEAN_ANOMALY":190.4196,"EPHEMERIS_TYPE":0,"NORAD_CAT_ID":60547,"ELEMENT_SET_NO":999,"REV_AT_EPOCH":10446,"BSTAR":0.00043622735,"MEAN_MOTION_DOT":0.00009005,"MEAN_MOTION_DDOT":0},{"OBJECT_NAME":"UMBRA-11","OBJECT_ID":"2025-276CL","EPOCH":"2026-07-12T03:42:36.223488","CLASSIFICATION_TYPE":"U","MEAN_MOTION":15.27700949,"ECCENTRICITY":0.0002305,"INCLINATION":97.4198,"RA_OF_ASC_NODE":267.6448,"ARG_OF_PERICENTER":194.6198,"MEAN_ANOMALY":165.4975,"EPHEMERIS_TYPE":0,"NORAD_CAT_ID":66748,"ELEMENT_SET_NO":999,"REV_AT_EPOCH":3430,"BSTAR":0.00052066349,"MEAN_MOTION_DOT":0.00014033,"MEAN_MOTION_DDOT":0},{"OBJECT_NAME":"UMBRA-12","OBJECT_ID":"2026-004J","EPOCH":"2026-07-12T12:02:36.153312","CLASSIFICATION_TYPE":"U","MEAN_MOTION":14.89520515,"ECCENTRICITY":0.0007585,"INCLINATION":97.802,"RA_OF_ASC_NODE":191.924,"ARG_OF_PERICENTER":60.0294,"MEAN_ANOMALY":300.1676,"EPHEMERIS_TYPE":0,"NORAD_CAT_ID":67371,"ELEMENT_SET_NO":999,"REV_AT_EPOCH":2707,"BSTAR":0.00023526,"MEAN_MOTION_DOT":0.00002187,"MEAN_MOTION_DDOT":0}]}
