UMBRA-07                
1 58297U 23174AT  26192.70119229  .00006191  00000+0  38913-3 0  9992
2 58297  97.3787 247.5395 0002663  24.9199 335.2158 15.09580721147119
UMBRA-09                
1 60541U 24149CB  26193.04350031  .00008209  00000+0  39796-3 0  9998
2 60541  97.6983 280.6851 0001781 207.5447 152.5692 15.18786696104491
UMBRA-10                
1 60547U 24149CH  26192.77951364  .00009005  00000+0  43623-3 0  9998
2 60547  97.6983 280.4472 0001471 169.7068 190.4196 15.18785708104468
UMBRA-11                
1 66748U 25276CL  26193.15458592  .00014033  00000+0  52066-3 0  9995
2 66748  97.4198 267.6448 0002305 194.6198 165.4975 15.27700949 34307
UMBRA-12                
1 67371U 26004J   26193.50180733  .00002187  00000+0  23526-3 0  9992
2 67371  97.8020 191.9240 0007585  60.0294 300.1676 14.89520515 27073
